0 COSMOS 1953
1 19210U 88050A   13282.74103051  .00001551  00000-0  12179-3 0  2269
2 19210 082.5183 255.0974 0016325 156.6073 203.5897 15.00140469375525
0 COSMOS 1953
1 19210U 88050A   13283.74156628  .00002363  00000-0  18673-3 0  2276
2 19210 082.5183 254.1355 0016264 153.1809 207.0260 15.00142182375672
0 COSMOS 1953
1 19210U 88050A   13283.74157545  .00004036  00000-0  32284-3 0  2289
2 19210 082.5181 254.1350 0015919 152.7017 207.5558 15.00137259375671
0 COSMOS 1953
1 19210U 88050A   13286.14284174  .00002215  00000-0  17483-3 0  2297
2 19210 082.5180 251.8261 0016538 145.0902 215.1410 15.00150892376032
0 COSMOS 1953
1 19210U 88050A   13287.14336806  .00002671  00000-0  21129-3 0  2308
2 19210 082.5182 250.8637 0016606 141.8395 218.4008 15.00152512376182
0 COSMOS 1953
1 19210U 88050A   13288.14389260  .00003935  00000-0  31224-3 0  2313
2 19210 082.5184 249.9013 0016640 138.7160 221.5326 15.00159894376339
0 COSMOS 1953
1 19210U 88050A   13289.14441185  .00003922  00000-0  31118-3 0  2328
2 19210 082.5188 248.9388 0016665 135.6430 224.6133 15.00164314376489
0 COSMOS 1953
1 19210U 88050A   13290.14492817  .00003999  00000-0  31725-3 0  2337
2 19210 082.5193 247.9765 0016682 132.5901 227.6734 15.00168725376638
0 COSMOS 1953
1 19210U 88050A   13291.14544095  .00003938  00000-0  31236-3 0  2345
2 19210 082.5198 247.0142 0016711 129.6339 230.6363 15.00175688376782
0 COSMOS 1953
1 19210U 88050A   13292.14594926  .00003908  00000-0  30986-3 0  2353
2 19210 082.5202 246.0520 0016760 126.7498 233.5268 15.00182230376939
0 COSMOS 1953
1 19210U 88050A   13293.14645301  .00003923  00000-0  31103-3 0  2368
2 19210 082.5205 245.0899 0016813 123.8740 236.4087 15.00189571377080
0 COSMOS 1953
1 19210U 88050A   13294.14695200  .00003804  00000-0  30145-3 0  2376
2 19210 082.5205 244.1279 0016895 120.9177 239.3711 15.00197714377235
0 COSMOS 1953
1 19210U 88050A   13295.14744594  .00003667  00000-0  29042-3 0  2380
2 19210 082.5203 243.1660 0017007 117.7944 242.5006 15.00203389377383
0 COSMOS 1953
1 19210U 88050A   13296.14793541  .00003739  00000-0  29616-3 0  2395
2 19210 082.5201 242.2041 0017056 114.8517 245.4483 15.00209664377532
